{
    "links": {
        "self": "http://www.neowsapp.com/rest/v1/neo/3767002?api_key=iIulBulltgU6a56xZRHN4H3l9WmuAYTsLGpBGhQ2"
    },
    "id": "3767002",
    "neo_reference_id": "3767002",
    "name": "(2017 BM6)",
    "designation": "2017 BM6",
    "nasa_jpl_url": "http://ssd.jpl.nasa.gov/sbdb.cgi?sstr=3767002",
    "absolute_magnitude_h": 20.0,
    "estimated_diameter": {
        "kilometers": {
            "estimated_diameter_min": 0.2658,
            "estimated_diameter_max": 0.5943468684
        },
        "meters": {
            "estimated_diameter_min": 265.8,
            "estimated_diameter_max": 594.3468684194
        },
        "miles": {
            "estimated_diameter_min": 0.1651604118,
            "estimated_diameter_max": 0.369309908
        },
        "feet": {
            "estimated_diameter_min": 872.047272,
            "estimated_diameter_max": 1949.9569797852
        }
    },
    "is_potentially_hazardous_asteroid": false,
    "close_approach_data": [
        {
            "close_approach_date": "2014-06-27",
            "close_approach_date_full": "2014-Jun-27 04:43",
            "epoch_date_close_approach": 1403844180000,
            "relative_velocity": {
                "kilometers_per_second": "18.4808395506",
                "kilometers_per_hour": "66531.0223822327",
                "miles_per_hour": "41339.7899907823"
            },
            "miss_distance": {
                "astronomical": "0.1326902603",
                "lunar": "51.6165112567",
                "kilometers": "19850180.310625561",
                "miles": "12334330.0945363018"
            },
            "orbiting_body": "Earth"
        },
        {
            "close_approach_date": "2017-01-18",
            "close_approach_date_full": "2017-Jan-18 00:58",
            "epoch_date_close_approach": 1484701080000,
            "relative_velocity": {
                "kilometers_per_second": "29.7772912387",
                "kilometers_per_hour": "107198.2484591519",
                "miles_per_hour": "66608.8227717436"
            },
            "miss_distance": {
                "astronomical": "0.2846002902",
                "lunar": "110.7095128878",
                "kilometers": "42575597.215301874",
                "miles": "26455249.3633749012"
            },
            "orbiting_body": "Earth"
        },
        {
            "close_approach_date": "2021-05-30",
            "close_approach_date_full": "2021-May-30 08:56",
            "epoch_date_close_approach": 1622364960000,
            "relative_velocity": {
                "kilometers_per_second": "34.6513822414",
                "kilometers_per_hour": "124744.9760690245",
                "miles_per_hour": "77511.676935778"
            },
            "miss_distance": {
                "astronomical": "0.4449553773",
                "lunar": "173.0876417697",
                "kilometers": "66564376.689126351",
                "miles": "41361185.7309556038"
            },
            "orbiting_body": "Earth"
        },
        {
            "close_approach_date": "2040-01-29",
            "close_approach_date_full": "2040-Jan-29 10:54",
            "epoch_date_close_approach": 2211447240000,
            "relative_velocity": {
                "kilometers_per_second": "36.600973299",
                "kilometers_per_hour": "131763.5038762812",
                "miles_per_hour": "81872.7171724593"
            },
            "miss_distance": {
                "astronomical": "0.497081719",
                "lunar": "193.364788691",
                "kilometers": "74362366.37833853",
                "miles": "46206631.837510514"
            },
            "orbiting_body": "Earth"
        }
    ],
    "orbital_data": {
        "orbit_id": "9",
        "orbit_determination_date": "2017-04-06 08:20:50",
        "first_observation_date": "2017-01-26",
        "last_observation_date": "2017-03-15",
        "data_arc_in_days": 48,
        "observations_used": 50,
        "orbit_uncertainty": "7",
        "minimum_orbit_intersection": ".0799381",
        "jupiter_tisserand_invariant": "3.815",
        "epoch_osculation": "2459000.5",
        "eccentricity": ".691352351260845",
        "semi_major_axis": "1.744001947007407",
        "inclination": "6.232820531568347",
        "ascending_node_longitude": "43.63147792749617",
        "orbital_period": "841.2379861238126",
        "perihelion_distance": ".5382821003403445",
        "perihelion_argument": "325.1150532744708",
        "aphelion_distance": "2.94972179367447",
        "perihelion_time": "2459410.058708575891",
        "mean_anomaly": "184.733146244753",
        "mean_motion": ".427940732513493",
        "equinox": "J2000",
        "orbit_class": {
            "orbit_class_type": "APO",
            "orbit_class_description": "Near-Earth asteroid orbits which cross the Earth’s orbit similar to that of 1862 Apollo",
            "orbit_class_range": "a (semi-major axis) > 1.0 AU; q (perihelion) < 1.017 AU"
        }
    },
    "is_sentry_object": false
}